{"type": "FeatureCollection", "features": [ {"type": "Feature", "properties": {"norad_id": 40697, "name": "SENTINEL-2A", "group": "resource", "lat": 37.10939739376402, "lon": 50.6329882208505, "alt_km": 785.8031525419146, "timestamp": "2025-12-10T14:53:36.779809+00:00", "meta": {"OBJECT_NAME": "SENTINEL-2A", "OBJECT_ID": "2015-028A", "EPOCH": "2025-12-10T06:19:36.653952", "MEAN_MOTION": 14.30825786, "ECCENTRICITY": 0.00010506, "INCLINATION": 98.5691, "RA_OF_ASC_NODE": 56.8314, "ARG_OF_PERICENTER": 89.9328, "MEAN_ANOMALY": 270.1975, "EPHEMERIS_TYPE": 0, "CLASSIFICATION_TYPE": "U", "NORAD_CAT_ID": 40697, "ELEMENT_SET_NO": 999, "REV_AT_EPOCH": 54671, "BSTAR": 0.00010374456, "MEAN_MOTION_DOT": 2.28e-06, "MEAN_MOTION_DDOT": 0}, "tle": {"line1": "1 40697U 15028A   25344.26361868  .00000228  00000+0  10374-3 0  9999", "line2": "2 40697  98.5691  56.8314 0001050  89.9328 270.1975 14.30825786546716"}}, "geometry": {"type": "Point", "coordinates": [50.6329882208505, 37.10939739376402]}}, {"type": "Feature", "properties": {"norad_id": 40701, "name": "GAOFEN-8", "group": "resource", "lat": -15.744291204974942, "lon": 164.84152860065663, "alt_km": 463.07375339280406, "timestamp": "2025-12-10T14:53:36.779818+00:00", "meta": {"OBJECT_NAME": "GAOFEN-8", "OBJECT_ID": "2015-030A", "EPOCH": "2025-12-10T07:09:26.570880", "MEAN_MOTION": 15.38416836, "ECCENTRICITY": 0.00115221, "INCLINATION": 97.6913, "RA_OF_ASC_NODE": 162.3201, "ARG_OF_PERICENTER": 146.2422, "MEAN_ANOMALY": 213.9559, "EPHEMERIS_TYPE": 0, "CLASSIFICATION_TYPE": "U", "NORAD_CAT_ID": 40701, "ELEMENT_SET_NO": 999, "REV_AT_EPOCH": 58233, "BSTAR": 0.0007106119, "MEAN_MOTION_DOT": 0.00026958, "MEAN_MOTION_DDOT": 0}, "tle": {"line1": "1 40701U 15030A   25344.29822420  .00026958  00000+0  71061-3 0  9995", "line2": "2 40701  97.6913 162.3201 0011522 146.2422 213.9559 15.38416836582336"}}, "geometry": {"type": "Point", "coordinates": [164.84152860065663, -15.744291204974942]}}, {"type": "Feature", "properties": {"norad_id": 40718, "name": "CARBONITE 1 (CBNT-1)", "group": "resource", "lat": -19.433117065516154, "lon": 168.47264026819488, "alt_km": 634.698730100903, "timestamp": "2025-12-10T14:53:36.779827+00:00", "meta": {"OBJECT_NAME": "CARBONITE 1 (CBNT-1)", "OBJECT_ID": "2015-032D", "EPOCH": "2025-12-10T06:53:01.831200", "MEAN_MOTION": 14.82722939, "ECCENTRICITY": 0.00141907, "INCLINATION": 97.6407, "RA_OF_ASC_NODE": 165.4391, "ARG_OF_PERICENTER": 189.371, "MEAN_ANOMALY": 170.7242, "EPHEMERIS_TYPE": 0, "CLASSIFICATION_TYPE": "U", "NORAD_CAT_ID": 40718, "ELEMENT_SET_NO": 999, "REV_AT_EPOCH": 56134, "BSTAR": 0.00025395345, "MEAN_MOTION_DOT": 2.003e-05, "MEAN_MOTION_DDOT": 0}, "tle": {"line1": "1 40718U 15032D   25344.28682675  .00002003  00000+0  25395-3 0  9994", "line2": "2 40718  97.6407 165.4391 0014190 189.3710 170.7242 14.82722939561347"}}, "geometry": {"type": "Point", "coordinates": [168.47264026819488, -19.433117065516154]}}, {"type": "Feature", "properties": {"norad_id": 40878, "name": "YAOGAN-27", "group": "resource", "lat": -47.23576223741348, "lon": 143.22379282379484, "alt_km": 1203.9212891129137, "timestamp": "2025-12-10T14:53:36.779836+00:00", "meta": {"OBJECT_NAME": "YAOGAN-27", "OBJECT_ID": "2015-040A", "EPOCH": "2025-12-10T06:26:20.442624", "MEAN_MOTION": 13.16060299, "ECCENTRICITY": 0.00076515, "INCLINATION": 100.1009, "RA_OF_ASC_NODE": 333.9996, "ARG_OF_PERICENTER": 293.031, "MEAN_ANOMALY": 66.9996, "EPHEMERIS_TYPE": 0, "CLASSIFICATION_TYPE": "U", "NORAD_CAT_ID": 40878, "ELEMENT_SET_NO": 999, "REV_AT_EPOCH": 49281, "BSTAR": 0.00086397979, "MEAN_MOTION_DOT": 2.86e-06, "MEAN_MOTION_DDOT": 0}, "tle": {"line1": "1 40878U 15040A   25344.26829216  .00000286  00000+0  86398-3 0  9993", "line2": "2 40878 100.1009 333.9996 0007651 293.0310  66.9996 13.16060299492815"}}, "geometry": {"type": "Point", "coordinates": [143.22379282379484, -47.23576223741348]}}, {"type": "Feature", "properties": {"norad_id": 40894, "name": "GAOFEN-9 01", "group": "resource", "lat": -79.94208518061521, "lon": 154.35887376676263, "alt_km": 643.794189853541, "timestamp": "2025-12-10T14:53:36.779846+00:00", "meta": {"OBJECT_NAME": "GAOFEN-9 01", "OBJECT_ID": "2015-047A", "EPOCH": "2025-12-10T07:13:43.254048", "MEAN_MOTION": 14.82412507, "ECCENTRICITY": 0.00285697, "INCLINATION": 97.6545, "RA_OF_ASC_NODE": 23.362, "ARG_OF_PERICENTER": 41.9969, "MEAN_ANOMALY": 318.3428, "EPHEMERIS_TYPE": 0, "CLASSIFICATION_TYPE": "U", "NORAD_CAT_ID": 40894, "ELEMENT_SET_NO": 999, "REV_AT_EPOCH": 55220, "BSTAR": 0.00023530779, "MEAN_MOTION_DOT": 1.847e-05, "MEAN_MOTION_DDOT": 0}, "tle": {"line1": "1 40894U 15047A   25344.30119507  .00001847  00000+0  23531-3 0  9992", "line2": "2 40894  97.6545  23.3620 0028569  41.9969 318.3428 14.82412507552204"}}, "geometry": {"type": "Point", "coordinates": [154.35887376676263, -79.94208518061521]}}, {"type": "Feature", "properties": {"norad_id": 41026, "name": "YAOGAN-28", "group": "resource", "lat": 80.70311555583055, "lon": -6.1760326977190925, "alt_km": 478.77325603435384, "timestamp": "2025-12-10T14:53:36.779855+00:00", "meta": {"OBJECT_NAME": "YAOGAN-28", "OBJECT_ID": "2015-064A", "EPOCH": "2025-12-10T08:10:22.548000", "MEAN_MOTION": 15.24287402, "ECCENTRICITY": 0.00122698, "INCLINATION": 97.2806, "RA_OF_ASC_NODE": 122.2007, "ARG_OF_PERICENTER": 133.8487, "MEAN_ANOMALY": 226.3767, "EPHEMERIS_TYPE": 0, "CLASSIFICATION_TYPE": "U", "NORAD_CAT_ID": 41026, "ELEMENT_SET_NO": 999, "REV_AT_EPOCH": 56188, "BSTAR": 0.00055897643, "MEAN_MOTION_DOT": 0.00013626, "MEAN_MOTION_DDOT": 0}, "tle": {"line1": "1 41026U 15064A   25344.34053875  .00013626  00000+0  55898-3 0  9997", "line2": "2 41026  97.2806 122.2007 0012269 133.8487 226.3767 15.24287402561881"}}, "geometry": {"type": "Point", "coordinates": [-6.1760326977190925, 80.70311555583055]}}, {"type": "Feature", "properties": {"norad_id": 41038, "name": "YAOGAN-29", "group": "resource", "lat": 31.635348269612038, "lon": -167.23071090120433, "alt_km": 618.7332431993582, "timestamp": "2025-12-10T14:53:36.779864+00:00", "meta": {"OBJECT_NAME": "YAOGAN-29", "OBJECT_ID": "2015-069A", "EPOCH": "2025-12-10T07:45:03.090816", "MEAN_MOTION": 14.82878892, "ECCENTRICITY": 3.84e-05, "INCLINATION": 98.0219, "RA_OF_ASC_NODE": 7.4866, "ARG_OF_PERICENTER": 350.7266, "MEAN_ANOMALY": 9.394, "EPHEMERIS_TYPE": 0, "CLASSIFICATION_TYPE": "U", "NORAD_CAT_ID": 41038, "ELEMENT_SET_NO": 999, "REV_AT_EPOCH": 54263, "BSTAR": 9.9019777e-05, "MEAN_MOTION_DOT": 7.48e-06, "MEAN_MOTION_DDOT": 0}, "tle": {"line1": "1 41038U 15069A   25344.32295244  .00000748  00000+0  99020-4 0  9998", "line2": "2 41038  98.0219   7.4866 0000384 350.7266   9.3940 14.82878892542634"}}, "geometry": {"type": "Point", "coordinates": [-167.23071090120433, 31.635348269612038]}}, {"type": "Feature", "properties": {"norad_id": 41167, "name": "KENT RIDGE 1", "group": "resource", "lat": 12.678894206294439, "lon": -75.83373095127877, "alt_km": 492.08572089184327, "timestamp": "2025-12-10T14:53:36.779874+00:00", "meta": {"OBJECT_NAME": "KENT RIDGE 1", "OBJECT_ID": "2015-077B", "EPOCH": "2025-12-09T22:54:25.386336", "MEAN_MOTION": 15.21601282, "ECCENTRICITY": 0.00085499, "INCLINATION": 14.9787, "RA_OF_ASC_NODE": 231.8092, "ARG_OF_PERICENTER": 91.1625, "MEAN_ANOMALY": 268.9676, "EPHEMERIS_TYPE": 0, "CLASSIFICATION_TYPE": "U", "NORAD_CAT_ID": 41167, "ELEMENT_SET_NO": 999, "REV_AT_EPOCH": 55221, "BSTAR": 0.00024156714, "MEAN_MOTION_DOT": 6.38e-05, "MEAN_MOTION_DDOT": 0}, "tle": {"line1": "1 41167U 15077B   25343.95446049  .00006380  00000+0  24157-3 0  9995", "line2": "2 41167  14.9787 231.8092 0008549  91.1625 268.9676 15.21601282552219"}}, "geometry": {"type": "Point", "coordinates": [-75.83373095127877, 12.678894206294439]}}, {"type": "Feature", "properties": {"norad_id": 41194, "name": "GAOFEN-4", "group": "resource", "lat": -0.06917188664233105, "lon": 48.6687353361989, "alt_km": 35797.95515826633, "timestamp": "2025-12-10T14:53:36.779886+00:00", "meta": {"OBJECT_NAME": "GAOFEN-4", "OBJECT_ID": "2015-083A", "EPOCH": "2025-12-10T02:11:38.764896", "MEAN_MOTION": 1.00270487, "ECCENTRICITY": 0.00035968, "INCLINATION": 0.164, "RA_OF_ASC_NODE": 80.7571, "ARG_OF_PERICENTER": 106.876, "MEAN_ANOMALY": 30.0549, "EPHEMERIS_TYPE": 0, "CLASSIFICATION_TYPE": "U", "NORAD_CAT_ID": 41194, "ELEMENT_SET_NO": 999, "REV_AT_EPOCH": 3663, "BSTAR": 0, "MEAN_MOTION_DOT": -3.31e-06, "MEAN_MOTION_DDOT": 0}, "tle": {"line1": "1 41194U 15083A   25344.09142089 -.00000331  00000+0  00000+0 0  9993", "line2": "2 41194   0.1640  80.7571 0003596 106.8760  30.0549  1.00270487 36639"}}, "geometry": {"type": "Point", "coordinates": [48.6687353361989, -0.06917188664233105]}}, {"type": "Feature", "properties": {"norad_id": 41240, "name": "JASON-3", "group": "resource", "lat": -26.403868001181124, "lon": -4.96598178553382, "alt_km": 1313.0058494406667, "timestamp": "2025-12-10T14:53:36.779896+00:00", "meta": {"OBJECT_NAME": "JASON-3", "OBJECT_ID": "2016-002A", "EPOCH": "2025-12-10T06:21:16.598880", "MEAN_MOTION": 12.87626386, "ECCENTRICITY": 0.00071534, "INCLINATION": 66.0389, "RA_OF_ASC_NODE": 163.0276, "ARG_OF_PERICENTER": 270.6579, "MEAN_ANOMALY": 89.362, "EPHEMERIS_TYPE": 0, "CLASSIFICATION_TYPE": "U", "NORAD_CAT_ID": 41240, "ELEMENT_SET_NO": 999, "REV_AT_EPOCH": 46292, "BSTAR": 7.2965071e-05, "MEAN_MOTION_DOT": -4.4e-07, "MEAN_MOTION_DDOT": 0}, "tle": {"line1": "1 41240U 16002A   25344.26477545 -.00000044  00000+0  72965-4 0  9999", "line2": "2 41240  66.0389 163.0276 0007153 270.6579  89.3620 12.87626386462922"}}, "geometry": {"type": "Point", "coordinates": [-4.96598178553382, -26.403868001181124]}}]}